SENTINEL-3A             
1 41335U 16011A   26187.29189585  .00000105  00000+0  61512-4 0  9990
2 41335  98.6241 254.4004 0001412  93.1880 266.9462 14.26738105540780
SENTINEL-3B             
1 43437U 18039A   26187.19489750  .00000114  00000+0  64969-4 0  9992
2 43437  98.6240 254.4537 0000946 117.9114 242.2162 14.26740326426832
